{
  "type": "FeatureCollection",
  "features": [
    {
      "type": "Feature",
      "properties": {
        "norad_id": 66920,
        "name": "HULIANWANG DIGUI-110",
        "group": "last-30-days",
        "lat": 48.657375199968406,
        "lon": -166.31984265683332,
        "alt_km": 870.569545557656,
        "timestamp": "2025-12-11T18:59:44.812981+00:00",
        "meta_object_name": "HULIANWANG DIGUI-110",
        "meta_object_id": "2025-285F",
        "meta_epoch": "2025-12-11T08:23:15.152352",
        "meta_mean_motion": 14.05851922,
        "meta_eccentricity": 0.00058225,
        "meta_inclination": 50.009,
        "meta_ra_of_asc_node": 122.9348,
        "meta_arg_of_pericenter": 283.9166,
        "meta_mean_anomaly": 76.1092,
        "meta_ephemeris_type": 0,
        "meta_classification_type": "U",
        "meta_norad_cat_id": 66920,
        "meta_element_set_no": 999,
        "meta_rev_at_epoch": 71,
        "meta_bstar": 0.00032181801,
        "meta_mean_motion_dot": 3.77e-06,
        "meta_mean_motion_ddot": 0,
        "tle_line1": "1 66920U 25285F   25345.34948093  .00000377  00000+0  32182-3 0  9999",
        "tle_line2": "2 66920  50.0090 122.9348 0005822 283.9166  76.1092 14.05851922   710"
      },
      "geometry": {
        "type": "Point",
        "coordinates": [
          -166.31984265683332,
          48.657375199968406
        ]
      }
    },
    {
      "type": "Feature",
      "properties": {
        "norad_id": 66921,
        "name": "HULIANWANG DIGUI-111",
        "group": "last-30-days",
        "lat": 48.81086974794227,
        "lon": -165.31359193745138,
        "alt_km": 870.9212264660164,
        "timestamp": "2025-12-11T18:59:44.812991+00:00",
        "meta_object_name": "HULIANWANG DIGUI-111",
        "meta_object_id": "2025-285G",
        "meta_epoch": "2025-12-11T08:23:04.526016",
        "meta_mean_motion": 14.0588586,
        "meta_eccentricity": 0.00069771,
        "meta_inclination": 50.0106,
        "meta_ra_of_asc_node": 122.9361,
        "meta_arg_of_pericenter": 290.4663,
        "meta_mean_anomaly": 69.5493,
        "meta_ephemeris_type": 0,
        "meta_classification_type": "U",
        "meta_norad_cat_id": 66921,
        "meta_element_set_no": 999,
        "meta_rev_at_epoch": 71,
        "meta_bstar": 0.00036503827,
        "meta_mean_motion_dot": 4.49e-06,
        "meta_mean_motion_ddot": 0,
        "tle_line1": "1 66921U 25285G   25345.34935794  .00000449  00000+0  36504-3 0  9996",
        "tle_line2": "2 66921  50.0106 122.9361 0006977 290.4663  69.5493 14.05885860   710"
      },
      "geometry": {
        "type": "Point",
        "coordinates": [
          -165.31359193745138,
          48.81086974794227
        ]
      }
    },
    {
      "type": "Feature",
      "properties": {
        "norad_id": 66922,
        "name": "HULIANWANG DIGUI-112",
        "group": "last-30-days",
        "lat": 49.24331182142567,
        "lon": -161.9888065630832,
        "alt_km": 870.2302193023133,
        "timestamp": "2025-12-11T18:59:44.813002+00:00",
        "meta_object_name": "HULIANWANG DIGUI-112",
        "meta_object_id": "2025-285H",
        "meta_epoch": "2025-12-11T06:40:08.810400",
        "meta_mean_motion": 14.05999226,
        "meta_eccentricity": 0.00069127,
        "meta_inclination": 50.0077,
        "meta_ra_of_asc_node": 123.2205,
        "meta_arg_of_pericenter": 296.5205,
        "meta_mean_anomaly": 63.4991,
        "meta_ephemeris_type": 0,
        "meta_classification_type": "U",
        "meta_norad_cat_id": 66922,
        "meta_element_set_no": 999,
        "meta_rev_at_epoch": 70,
        "meta_bstar": 1.808422e-06,
        "meta_mean_motion_dot": -1.49e-06,
        "meta_mean_motion_ddot": 0,
        "tle_line1": "1 66922U 25285H   25345.27787975 -.00000149  00000+0  18084-5 0  9998",
        "tle_line2": "2 66922  50.0077 123.2205 0006912 296.5205  63.4991 14.05999226   704"
      },
      "geometry": {
        "type": "Point",
        "coordinates": [
          -161.9888065630832,
          49.24331182142567
        ]
      }
    },
    {
      "type": "Feature",
      "properties": {
        "norad_id": 66923,
        "name": "HULIANWANG DIGUI-113",
        "group": "last-30-days",
        "lat": 49.43027730288207,
        "lon": -160.24596576384144,
        "alt_km": 869.3611675004577,
        "timestamp": "2025-12-11T18:59:44.813012+00:00",
        "meta_object_name": "HULIANWANG DIGUI-113",
        "meta_object_id": "2025-285J",
        "meta_epoch": "2025-12-11T08:22:11.727840",
        "meta_mean_motion": 14.06057212,
        "meta_eccentricity": 0.00053988,
        "meta_inclination": 50.0077,
        "meta_ra_of_asc_node": 122.9299,
        "meta_arg_of_pericenter": 291.6539,
        "meta_mean_anomaly": 68.3791,
        "meta_ephemeris_type": 0,
        "meta_classification_type": "U",
        "meta_norad_cat_id": 66923,
        "meta_element_set_no": 999,
        "meta_rev_at_epoch": 71,
        "meta_bstar": 0.00033931344,
        "meta_mean_motion_dot": 4.08e-06,
        "meta_mean_motion_ddot": 0,
        "tle_line1": "1 66923U 25285J   25345.34874685  .00000408  00000+0  33931-3 0  9995",
        "tle_line2": "2 66923  50.0077 122.9299 0005398 291.6539  68.3791 14.06057212   711"
      },
      "geometry": {
        "type": "Point",
        "coordinates": [
          -160.24596576384144,
          49.43027730288207
        ]
      }
    },
    {
      "type": "Feature",
      "properties": {
        "norad_id": 66924,
        "name": "CZ-8A R/B",
        "group": "last-30-days",
        "lat": -15.649770899793168,
        "lon": -46.20858343695415,
        "alt_km": 802.0056238516008,
        "timestamp": "2025-12-11T18:59:44.813022+00:00",
        "meta_object_name": "CZ-8A R/B",
        "meta_object_id": "2025-285K",
        "meta_epoch": "2025-12-11T02:59:08.112480",
        "meta_mean_motion": 14.30500747,
        "meta_eccentricity": 0.01193112,
        "meta_inclination": 50.0062,
        "meta_ra_of_asc_node": 123.0306,
        "meta_arg_of_pericenter": 101.0445,
        "meta_mean_anomaly": 260.3916,
        "meta_ephemeris_type": 0,
        "meta_classification_type": "U",
        "meta_norad_cat_id": 66924,
        "meta_element_set_no": 999,
        "meta_rev_at_epoch": 69,
        "meta_bstar": 9.2034787e-05,
        "meta_mean_motion_dot": 9.4e-07,
        "meta_mean_motion_ddot": 0,
        "tle_line1": "1 66924U 25285K   25345.12439945  .00000094  00000+0  92035-4 0  9990",
        "tle_line2": "2 66924  50.0062 123.0306 0119311 101.0445 260.3916 14.30500747   691"
      },
      "geometry": {
        "type": "Point",
        "coordinates": [
          -46.20858343695415,
          -15.649770899793168
        ]
      }
    },
    {
      "type": "Feature",
      "properties": {
        "norad_id": 66953,
        "name": "HULIANWANG DIGUI-114",
        "group": "last-30-days",
        "lat": -23.81341680951343,
        "lon": 168.05260817944625,
        "alt_km": 1002.3310738057498,
        "timestamp": "2025-12-11T18:59:44.813034+00:00",
        "meta_object_name": "HULIANWANG DIGUI-114",
        "meta_object_id": "2025-287A",
        "meta_epoch": "2025-12-10T06:55:20.076384",
        "meta_mean_motion": 13.69073793,
        "meta_eccentricity": 0.00082441,
        "meta_inclination": 86.4956,
        "meta_ra_of_asc_node": 347.0512,
        "meta_arg_of_pericenter": 213.3003,
        "meta_mean_anomaly": 146.7638,
        "meta_ephemeris_type": 0,
        "meta_classification_type": "U",
        "meta_norad_cat_id": 66953,
        "meta_element_set_no": 999,
        "meta_rev_at_epoch": 19,
        "meta_bstar": 9.649594e-06,
        "meta_mean_motion_dot": 2.5e-07,
        "meta_mean_motion_ddot": 0,
        "tle_line1": "1 66953U 25287A   25344.28842681  .00000025  00000+0  96496-5 0  9995",
        "tle_line2": "2 66953  86.4956 347.0512 0008244 213.3003 146.7638 13.69073793   194"
      },
      "geometry": {
        "type": "Point",
        "coordinates": [
          168.05260817944625,
          -23.81341680951343
        ]
      }
    },
    {
      "type": "Feature",
      "properties": {
        "norad_id": 66954,
        "name": "HULIANWANG DIGUI-115",
        "group": "last-30-days",
        "lat": -24.782454782738547,
        "lon": 168.12530467209837,
        "alt_km": 1002.089271439092,
        "timestamp": "2025-12-11T18:59:44.813046+00:00",
        "meta_object_name": "HULIANWANG DIGUI-115",
        "meta_object_id": "2025-287B",
        "meta_epoch": "2025-12-10T10:25:40.434528",
        "meta_mean_motion": 13.69168852,
        "meta_eccentricity": 0.00081957,
        "meta_inclination": 86.4972,
        "meta_ra_of_asc_node": 346.9997,
        "meta_arg_of_pericenter": 212.0231,
        "meta_mean_anomaly": 148.0431,
        "meta_ephemeris_type": 0,
        "meta_classification_type": "U",
        "meta_norad_cat_id": 66954,
        "meta_element_set_no": 999,
        "meta_rev_at_epoch": 21,
        "meta_bstar": 1.1007839e-05,
        "meta_mean_motion_dot": 2.6e-07,
        "meta_mean_motion_ddot": 0,
        "tle_line1": "1 66954U 25287B   25344.43449577  .00000026  00000+0  11008-4 0  9996",
        "tle_line2": "2 66954  86.4972 346.9997 0008195 212.0231 148.0431 13.69168852   212"
      },
      "geometry": {
        "type": "Point",
        "coordinates": [
          168.12530467209837,
          -24.782454782738547
        ]
      }
    }
  ]
}